{
    "links": {
        "self": "http://www.neowsapp.com/rest/v1/neo/3607717?api_key=iIulBulltgU6a56xZRHN4H3l9WmuAYTsLGpBGhQ2"
    },
    "id": "3607717",
    "neo_reference_id": "3607717",
    "name": "(2012 QV2)",
    "designation": "2012 QV2",
    "nasa_jpl_url": "http://ssd.jpl.nasa.gov/sbdb.cgi?sstr=3607717",
    "absolute_magnitude_h": 24.1,
    "estimated_diameter": {
        "kilometers": {
            "estimated_diameter_min": 0.040230458,
            "estimated_diameter_max": 0.0899580388
        },
        "meters": {
            "estimated_diameter_min": 40.2304579834,
            "estimated_diameter_max": 89.9580388169
        },
        "miles": {
            "estimated_diameter_min": 0.0249980399,
            "estimated_diameter_max": 0.0558973165
        },
        "feet": {
            "estimated_diameter_min": 131.9896957704,
            "estimated_diameter_max": 295.1379320721
        }
    },
    "is_potentially_hazardous_asteroid": false,
    "close_approach_data": [
        {
            "close_approach_date": "2012-08-26",
            "close_approach_date_full": "2012-Aug-26 16:45",
            "epoch_date_close_approach": 1345999500000,
            "relative_velocity": {
                "kilometers_per_second": "9.5339912124",
                "kilometers_per_hour": "34322.3683645141",
                "miles_per_hour": "21326.5849429393"
            },
            "miss_distance": {
                "astronomical": "0.0270702459",
                "lunar": "10.5303256551",
                "kilometers": "4049651.127016233",
                "miles": "2516336.5262526954"
            },
            "orbiting_body": "Earth"
        },
        {
            "close_approach_date": "2099-09-06",
            "close_approach_date_full": "2099-Sep-06 19:14",
            "epoch_date_close_approach": 4092405240000,
            "relative_velocity": {
                "kilometers_per_second": "8.7524450638",
                "kilometers_per_hour": "31508.8022295847",
                "miles_per_hour": "19578.344363155"
            },
            "miss_distance": {
                "astronomical": "0.017192514",
                "lunar": "6.687887946",
                "kilometers": "2571963.47434518",
                "miles": "1598143.996036284"
            },
            "orbiting_body": "Earth"
        },
        {
            "close_approach_date": "2109-11-12",
            "close_approach_date_full": "2109-Nov-12 11:30",
            "epoch_date_close_approach": 4413699000000,
            "relative_velocity": {
                "kilometers_per_second": "18.0590430155",
                "kilometers_per_hour": "65012.5548557183",
                "miles_per_hour": "40396.2733213212"
            },
            "miss_distance": {
                "astronomical": "0.3475517266",
                "lunar": "135.1976216474",
                "kilometers": "51992998.014182342",
                "miles": "32306950.8727946396"
            },
            "orbiting_body": "Earth"
        }
    ],
    "orbital_data": {
        "orbit_id": "12",
        "orbit_determination_date": "2017-04-06 08:49:16",
        "first_observation_date": "2012-08-17",
        "last_observation_date": "2012-08-29",
        "data_arc_in_days": 12,
        "observations_used": 56,
        "orbit_uncertainty": "8",
        "minimum_orbit_intersection": ".00916911",
        "jupiter_tisserand_invariant": "3.405",
        "epoch_osculation": "2456161.5",
        "eccentricity": ".5551030687391885",
        "semi_major_axis": "2.240629952685488",
        "inclination": "7.173655451489402",
        "ascending_node_longitude": "337.2351429695787",
        "orbital_period": "1225.049487168069",
        "perihelion_distance": ".9968493900408312",
        "perihelion_argument": "21.33171499949335",
        "aphelion_distance": "3.484410515330146",
        "perihelion_time": "2456185.881299687752",
        "mean_anomaly": "352.8351727995242",
        "mean_motion": ".2938656795263082",
        "equinox": "J2000",
        "orbit_class": {
            "orbit_class_type": "APO",
            "orbit_class_description": "Near-Earth asteroid orbits which cross the Earth’s orbit similar to that of 1862 Apollo",
            "orbit_class_range": "a (semi-major axis) > 1.0 AU; q (perihelion) < 1.017 AU"
        }
    },
    "is_sentry_object": false
}